SENTINEL-6              
1 46984U 20086A   24273.54109082 -.00000046  00000+0  66114-4 0  9996
2 46984  66.0451 354.5279 0007822 269.1726  90.8393 12.80928416180318
